OUFTI-1                 
1 41458U 16025C   21293.90324577  .00002737  00000-0  13242-3 0  9994
2 41458  98.1613  78.8667 0155548 356.7658   3.2549 15.09543992301398
E-ST@R-II               
1 41459U 16025D   21294.18655893  .00003266  00000-0  15911-3 0  9997
2 41459  98.1582  78.0830 0157505 359.1611   0.9341 15.08901403301375
AAUSAT 4                
1 41460U 16025E   21294.21037941  .00004991  00000-0  22813-3 0  9996
2 41460  98.1577  82.6490 0143142 340.6222  18.9615 15.12347385301718
AIST-2D (RS-48)         
1 41465U 16026B   21294.09019267  .00004793  00000-0  13422-3 0  9995
2 41465  97.0863 173.8122 0008907 285.4455 212.1457 15.37053060306726
SAMSAT-218D             
1 41466U 16026C   21294.01960740  .00055506  00000-0  61630-3 0  9991
2 41466  97.1443 203.0090 0005138 136.0967 280.4330 15.62742083308395
NUSAT-1 (FRESCO)        
1 41557U 16033B   21294.18250876  .00004557  00000-0  15821-3 0  9991
2 41557  97.3934  27.4677 0013635 143.7207 303.7358 15.30200436300752
NUSAT-2 (BATATA)        
1 41558U 16033C   21294.20215154  .00004846  00000-0  15749-3 0  9995
2 41558  97.4064  31.9078 0012744 135.9444 284.3448 15.32319949300979
CARTOSAT-2C             
1 41599U 16040A   21294.11586617  .00001102  00000-0  55321-4 0  9996
2 41599  97.3852 350.8208 0012459 301.0545 112.4342 15.19320541295597
SATHYABAMASAT           
1 41600U 16040B   21294.12573302  .00004434  00000-0  16918-3 0  9996
2 41600  97.2582 347.9367 0010998 249.0299 110.9764 15.27121000296326
LAPAN-A3                
1 41603U 16040E   21294.18809352  .00000420  00000-0  22448-4 0  9999
2 41603  97.2424 336.2524 0011683 284.1298 146.6874 15.20133961295689
BIROS                   
1 41604U 16040F   21293.71751092  .00001380  00000-0  61768-4 0  9999
2 41604  97.2480 341.9052 0010362 257.7085 102.2992 15.22858519295969
SWAYAM                  
1 41607U 16040J   21293.72325637  .00004364  00000-0  16867-3 0  9999
2 41607  97.2538 346.1909 0010730 251.4939 108.5134 15.26703266296153
BEESAT-4                
1 41619U 16040W   21294.10860138  .00004040  00000-0  15825-3 0  9999
2 41619  97.2550 346.6345 0008909 241.8505 118.1834 15.26310154284179
3CAT-2                  
1 41732U 16051B   21294.24175064  .00003961  00000-0  14058-3 0  9997
2 41732  97.3748 213.4637 0014314  63.7181  89.9653 15.29549200288726
PRATHAM                 
1 41783U 16059A   21294.09022302  .00000137  00000-0  35465-4 0  9998
2 41783  97.9499 339.7992 0032934 207.6056 152.3399 14.63177780270624
ALSAT 1N                
1 41789U 16059G   21294.09013159  .00000178  00000-0  42203-4 0  9997
2 41789  97.9537 343.7959 0027984 191.6543 168.4023 14.64468998270833
LISHUI 1-01             
1 41845U 16066E   21294.20085581  .00013508  00000-0  16312-2 0  9990
2 41845  98.7328  44.5455 0264434  93.7569 269.3881 14.62025725261752
CARTOSAT-2D             
1 41948U 17008A   21294.14421372  .00001411  00000-0  70162-4 0  9991
2 41948  97.4284 352.5164 0008577  84.7766 275.4447 15.19237562259463
NAYIF-1 (EO-88)         
1 42017U 17008BX  21293.66089614  .00004762  00000-0  17126-3 0  9996
2 42017  97.3036 358.9952 0006547  38.6293 321.5414 15.29072350260381
ZHUHAI-1 02 (CAS-4B)    
1 42759U 17034B   21294.09059243  .00001236  00000-0  86996-4 0  9996
2 42759  43.0167 210.2631 0008659 237.9013 254.2203 15.10462206240144
ZHUHAI-1 01 (CAS-4A)    
1 42761U 17034D   21294.14126503  .00001089  00000-0  78082-4 0  9992
2 42761  43.0175 208.9474 0009057 239.5013 257.3197 15.10547545240153
UCLSAT                  
1 42765U 17036A   21294.09875719  .00003472  00000-0  13936-3 0  9996
2 42765  97.2353 339.6298 0012440  93.7044 266.5617 15.25550551240736
NIUSAT                  
1 42766U 17036B   21294.07190881  .00002803  00000-0  12079-3 0  9999
2 42766  97.2364 335.6268 0016623  93.1579 267.1561 15.23257337240331
CARTOSAT-2E             
1 42767U 17036C   21294.17056462  .00001168  00000-0  58695-4 0  9995
2 42767  97.4906 352.2732 0009668 124.6363 294.8456 15.19205697240033
LITUANICASAT-2          
1 42768U 17036D   21293.71528039  .00005468  00000-0  20519-3 0  9999
2 42768  97.2433 340.4978 0014944  84.0706 276.2236 15.27517029240585
AALTO-1                 
1 42775U 17036L   21294.11818630  .00002276  00000-0  99069-4 0  9992
2 42775  97.2329 335.8495 0015165  92.2411 268.0562 15.23110140240321
URSA MAIOR              
1 42776U 17036M   21294.09725128  .00002428  00000-0  10459-3 0  9993
2 42776  97.2343 336.3711 0014921  91.6578 268.6369 15.23420043240340
COMPASS 2               
1 42777U 17036N   21294.07566484  .00004914  00000-0  18973-3 0  9991
2 42777  97.2418 340.8474 0013121  84.7045 275.5691 15.26645206240576
MAX VALIER SAT          
1 42778U 17036P   21294.12008292  .00002601  00000-0  10961-3 0  9996
2 42778  97.2411 338.5509 0013475  93.4328 266.8451 15.24120632240426
PEGASUS                 
1 42784U 17036V   21294.11564467  .00002932  00000-0  11982-3 0  9994
2 42784  97.2361 339.1001 0013034  95.4892 264.7833 15.25064041240502
NUDTSAT                 
1 42787U 17036Y   21294.21203218  .00006127  00000-0  23086-3 0  9990
2 42787  97.2416 342.0466 0011688  81.8489 278.4076 15.27374908240529
SUCHAI                  
1 42788U 17036Z   21293.65139800  .00003993  00000-0  15777-3 0  9999
2 42788  97.2373 339.8140 0012503  94.0382 266.2286 15.25989657240574
SKCUBE                  
1 42789U 17036AA  21293.70430722  .00003644  00000-0  14564-3 0  9999
2 42789  97.2367 339.5130 0012462  94.5287 265.7375 15.25665626240487
VZLUSAT-1               
1 42790U 17036AB  21293.81556428  .00005054  00000-0  19119-3 0  9993
2 42790  97.2399 341.6472 0011718  89.7030 270.5552 15.27324945240616
ROBUSTA-1B              
1 42792U 17036AD  21293.71783445  .00003762  00000-0  14901-3 0  9993
2 42792  97.2369 339.9578 0012021  94.4000 265.8612 15.25945590240527
D-SAT                   
1 42794U 17036AF  21293.60039738  .00000721  00000-0  66777-4 0  9993
2 42794  97.4581 306.8312 0125546 166.9540 193.4979 14.91725777235719
NORSAT 2                
1 42828U 17042D   21293.58593618  .00000815  00000-0  85438-4 0  9996
2 42828  97.4577 158.0247 0015800  86.6193 273.6833 14.92000745232392
TECHNOSAT               
1 42829U 17042E   21294.05832070  .00000334  00000-0  38593-4 0  9994
2 42829  97.4487 156.7997 0015710  87.8171 272.4847 14.91372287232405
2017-042F               
1 42830U 17042F   21294.07118892  .00001353  00000-0  13442-3 0  9994
2 42830  97.4619 159.9517 0015525  79.0831 281.2136 14.93176375232543
FLYING LAPTOP           
1 42831U 17042G   21293.76256026  .00000189  00000-0  24123-4 0  9997
2 42831  97.4506 156.7785 0015580  88.7911 271.5104 14.91371090232364
CORVUS BC2              
1 42846U 17042X   21293.61593815  .00000249  00000-0  29441-4 0  9992
2 42846  97.4520 159.1065 0011149  81.0646 279.1835 14.92388531232502
CORVUS BC1              
1 42847U 17042Y   21294.11479938  .00000605  00000-0  64021-4 0  9997
2 42847  97.4522 159.8407 0010753  78.8555 281.3874 14.92485839232580
SIMPL                   
1 42983U 98067NF  21293.61711786  .00015609  00000-0  13197-3 0  9995
2 42983  51.6360 342.1993 0003430  82.3007 277.8379 15.69943969227049
CZ-4C R/B               
1 43012U 17072C   21293.68417270  .00000109  00000-0  34068-4 0  9994
2 43012  98.7249 314.1523 0126897 330.8045  28.6098 14.56208806208964
RADFXSAT (FOX-1B)       
1 43017U 17073E   21293.70766648  .00001297  00000-0  10537-3 0  9992
2 43017  97.6932 192.6584 0252423 251.5250 105.8379 14.79864920211643
EAGLESAT 1              
1 43018U 17073F   21293.71367523  .00002099  00000-0  16370-3 0  9995
2 43018  97.6947 193.7809 0248344 247.4373 110.0390 14.81116935211582
ECAMSAT                 
1 43019U 98067NG  21294.11053696  .00116912  16464-4  31509-3 0  9992
2 43019  51.6396 288.9536 0005804  66.0929 333.3251 15.94146157310118
INS-1C                  
1 43116U 18004F   21294.13407479  .00003486  00000-0  13890-3 0  9996
2 43116  97.4041   7.4092 0010331 115.7108 244.5198 15.25839809209807
FLOCK 3P'-3             
1 43119U 18004J   21294.11261280  .00002407  00000-0  10002-3 0  9999
2 43119  97.4026   6.0752 0011215 124.2527 235.9774 15.24731328209724
FLOCK 3P'-2             
1 43120U 18004K   21294.11763670  .00002321  00000-0  97590-4 0  9994
2 43120  97.4034   5.8244 0011233 124.7864 235.4433 15.24358114209700
FLOCK 3P'-1             
1 43121U 18004L   21293.78085087  .00008328  00000-0  30110-3 0  9993
2 43121  97.4032   8.0471 0009773 117.7706 242.4526 15.28656842209758
FLOCK 3P'-4             
1 43122U 18004M   21293.91421715  .00002066  00000-0  87207-4 0  9994
2 43122  97.4044   5.7490 0010995 126.9451 233.2795 15.24363533209679
MICROMAS-2A             
1 43131U 18004W   21294.13003819  .00005408  00000-0  19747-3 0  9996
2 43131  97.4022   9.2708 0009572 115.1789 245.0444 15.28499939209956
PICSAT                  
1 43132U 18004X   21294.14210995  .00004168  00000-0  16193-3 0  9997
2 43132  97.3996   7.5384 0010221 121.2128 239.0113 15.26578588209856
CNUSAIL-1               
1 43133U 18004Y   21294.12641694  .00002966  00000-0  12017-3 0  9995
2 43133  97.3961   6.2809 0010476 123.2229 237.0014 15.25400271209774
2018-004Z               
1 43134U 18004Z   21294.15930270  .00003551  00000-0  14016-3 0  9992
2 43134  97.3984   7.1461 0010258 122.3029 237.9205 15.26142874209820
FOX-1D (AO-92)          
1 43137U 18004AC  21294.14182343  .00003189  00000-0  12728-3 0  9999
2 43137  97.3968   6.8576 0010035 123.0572 237.1631 15.25850456209817
STEP CUBE LAB           
1 43138U 18004AD  21293.76915121  .00005406  00000-0  20071-3 0  9999
2 43138  97.4023   8.6626 0009584 120.5431 239.6756 15.27953544209886
XIAOXIANG-2             
1 43155U 18008A   21294.14292125  .00002061  00000-0  12061-3 0  9991
2 43155  97.3888 355.2695 0015506 252.4302 159.4218 15.12848316207078
